STARLINK-31810          
1 59799U 24093T   26068.43101755  .00001116  00000+0  50108-4 0  9991
2 59799  43.0048 210.5447 0002421 282.6093  77.4488 15.27570549102659
TEVEL2-1                
1 63217U 25052H   26068.64782323  .00020683  00000+0  70600-3 0  9994
2 63217  97.3991 324.7682 0004767 104.8919 255.2849 15.30341923 54855
